KUIPER-00136            
1 65962U 25228R   25308.11176050  .00027694  00000+0  81307-3 0  9995
2 65962  51.8809 206.6566 0005706 209.0409 151.0260 15.34924417  4485
KUIPER-00137            
1 65963U 25228S   25308.18195219  .00027069  00000+0  80399-3 0  9997
2 65963  51.8811 206.3768 0004996 220.7534 139.3079 15.34574934  4492
KUIPER-00138            
1 65964U 25228T   25308.18438317  .00034678  00000+0  10342-2 0  9991
2 65964  51.8804 206.3874 0006000 233.1114 126.9322 15.34311718  4495
KUIPER-00140            
1 65965U 25228U   25308.18515579  .00028480  00000+0  84996-3 0  9999
2 65965  51.8808 206.3953 0005473 234.6740 125.3734 15.34394108  4496
KUIPER-00141            
1 65966U 25228V   25308.17938100  .00029158  00000+0  85885-3 0  9999
2 65966  51.8803 206.3529 0005437 212.4095 147.6557 15.34795864  4492
KUIPER-00146            
1 65967U 25228W   25308.17984986  .00033057  00000+0  97254-3 0  9999
2 65967  51.8810 206.3642 0005594 214.4871 145.5753 15.34768204  4498
KUIPER-00149            
1 65968U 25228X   25308.11221576  .00026297  00000+0  77234-3 0  9997
2 65968  51.8805 206.6551 0005497 211.3752 148.6907 15.34942951  4488
KUIPER-00154            
1 65969U 25228Y   25308.17637527  .00031710  00000+0  92627-3 0  9990
2 65969  51.8802 206.3349 0005759 208.4575 151.6097 15.35013258  4494
